     3.00           N                   E                   RINEX VERSION / TYPE
BRD_USR             ESA                 20190108 111656  UTCPGM / RUN BY / DATE
 GAL   5.0750E+01  7.0312E-02 -4.8523E-03  0.0000E+00       IONOSPHERIC CORR
GAUT  0.0000000000E+00 0.000000000E+00 172800 2035 GSTB   0 TIME SYSTEM CORR
GPGA -3.7834979594E-10 1.065814104E-14 172800 2035 GSTB   0 TIME SYSTEM CORR
                                                            END OF HEADER
E19 2019 01 08 09 30 00-9.287730790675E-06 3.268496584496E-13 0.000000000000E+00
     8.900000000000E+01 2.521875000000E+01 3.296923044364E-09-2.547516727691E+00
     1.100823283195E-06 1.320949522778E-04 7.748603820801E-06 5.440614597321E+03
     2.070000000000E+05 1.862645149231E-09 1.240136932475E+00-4.284083843231E-08
     9.580685991513E-01 1.716875000000E+02 2.337074295725E+00-5.518086993329E-09
     4.939491463932E-10 5.210000000000E+02 2.035000000000E+03 0.000000000000E+00
     3.120000000000E+00 0.000000000000E+00-8.614733815193E-09-9.080395102501E-09
     2.076850000000E+05 0.000000000000E+00 0.000000000000E+00 0.000000000000E+00
E26 2019 01 08 09 30 00 5.043737532105E-03-4.337152859080E-11 0.000000000000E+00
     8.900000000000E+01-8.818750000000E+01 3.212633819094E-09-1.611426205158E+00
    -4.049390554428E-06 3.246156265959E-04-4.079192876816E-07 5.440604930878E+03
     2.070000000000E+05 3.725290298462E-09-8.581555104673E-01 5.960464477539E-08
     9.782721912492E-01 3.577500000000E+02-2.070834961308E+00-5.897745664780E-09
    -1.407201472733E-10 5.210000000000E+02 2.035000000000E+03 0.000000000000E+00
     3.120000000000E+00 0.000000000000E+00 1.396983861923E-09 1.396983861923E-09
     2.076850000000E+05 0.000000000000E+00 0.000000000000E+00 0.000000000000E+00
E30 2019 01 08 09 30 00 5.205383931752E-03-3.051070507354E-11 0.000000000000E+00
     8.900000000000E+01 8.600000000000E+01 2.335097266174E-09-5.292892045970E-01
     4.051253199577E-06 3.002559533343E-04 1.246109604836E-05 5.440620985031E+03
     2.070000000000E+05 2.607703208923E-08-2.943884626531E+00-2.421438694000E-08
     9.878551707159E-01 8.434375000000E+01 5.041200896424E-01-5.048781730596E-09
    -3.664438352852E-10 5.210000000000E+02 2.035000000000E+03 0.000000000000E+00
     3.120000000000E+00 0.000000000000E+00-3.259629011154E-09-3.958120942116E-09
     2.076850000000E+05 0.000000000000E+00 0.000000000000E+00 0.000000000000E+00
E33 2019 01 08 09 30 00 8.478810195811E-04 8.526512829121E-14 0.000000000000E+00
     8.900000000000E+01-8.990625000000E+01 3.040483791211E-09-2.984787167955E+00
    -4.176050424576E-06 3.619474591687E-04-4.097819328308E-07 5.440595703125E+03
     2.070000000000E+05 2.421438694000E-08-8.671202797716E-01 4.470348358154E-08
     9.851503946454E-01 3.593437500000E+02-1.489226716705E+00-5.824171171536E-09
    -1.107188976008E-10 5.210000000000E+02 2.035000000000E+03 0.000000000000E+00
     3.120000000000E+00 4.550000000000E+02-8.149072527885E-09-9.313225746155E-09
     2.076850000000E+05 0.000000000000E+00 0.000000000000E+00 0.000000000000E+00
E36 2019 01 08 09 30 00 7.621319964528E-04-4.476419235289E-12 0.000000000000E+00
     8.900000000000E+01-1.080000000000E+02 3.105843656569E-09 1.067821109527E+00
    -4.967674612999E-06 3.301134565845E-04 1.043081283569E-07 5.440596803665E+03
     2.070000000000E+05-3.539025783539E-08-8.670939253024E-01-4.470348358154E-08
     9.851588152018E-01 3.518750000000E+02-1.613126282739E+00-5.856315367613E-09
    -1.596495071856E-10 5.210000000000E+02 2.035000000000E+03 0.000000000000E+00
     3.120000000000E+00 4.550000000000E+02 9.313225746155E-10 1.164153218269E-09
     2.076850000000E+05 0.000000000000E+00 0.000000000000E+00 0.000000000000E+00
E01 2019 01 08 09 30 00-5.162872839719E-04-8.128608897096E-12 0.000000000000E+00
     8.900000000000E+01 5.959375000000E+01 2.336168739377E-09-1.557279096868E+00
     2.844259142876E-06 1.123317051679E-04 1.207925379276E-05 5.440621774673E+03
     2.070000000000E+05-6.332993507385E-08-2.947296387022E+00 8.009374141693E-08
     9.903039858617E-01 9.600000000000E+01-8.218668444301E-01-5.032709632557E-09
    -3.325138505366E-10 2.580000000000E+02 2.035000000000E+03 0.000000000000E+00
     3.120000000000E+00 0.000000000000E+00-4.423782229424E-09 0.000000000000E+00
     2.077000000000E+05 0.000000000000E+00 0.000000000000E+00 0.000000000000E+00
E03 2019 01 08 09 30 00-1.198254176416E-04-4.263256414561E-12 0.000000000000E+00
     8.900000000000E+01 2.871875000000E+01 3.464787179436E-09 2.232097655507E+00
     1.182779669762E-06 2.647206420079E-04 8.132308721542E-06 5.440610845566E+03
     2.070000000000E+05-1.117587089539E-08 1.243414078170E+00 4.842877388000E-08
     9.522956742515E-01 1.600312500000E+02 6.193219742518E-01-5.597018852587E-09
     5.089497712294E-10 2.580000000000E+02 2.035000000000E+03 0.000000000000E+00
     3.120000000000E+00 0.000000000000E+00-1.862645149231E-09 0.000000000000E+00
     2.077000000000E+05 0.000000000000E+00 0.000000000000E+00 0.000000000000E+00
E04 2019 01 08 09 30 00-1.956931664608E-04-7.858602657507E-12 0.000000000000E+00
     8.900000000000E+01 3.187500000000E+01 3.410499203838E-09-3.114126627051E+00
     1.488253474236E-06 7.224758155644E-05 7.869675755501E-06 5.440614471436E+03
     2.070000000000E+05-4.470348358154E-08 1.243463428249E+00-1.862645149231E-09
     9.523390746422E-01 1.690937500000E+02 2.043058728842E+00-5.614162423828E-09
     5.078782980268E-10 2.580000000000E+02 2.035000000000E+03 0.000000000000E+00
     3.120000000000E+00 0.000000000000E+00-8.149072527885E-09 0.000000000000E+00
     2.077000000000E+05 0.000000000000E+00 0.000000000000E+00 0.000000000000E+00
E05 2019 01 08 09 30 00 1.286771730520E-04-6.565414878423E-12 0.000000000000E+00
     8.900000000000E+01 3.818750000000E+01 3.505860318869E-09 2.042406380024E+00
     1.760199666023E-06 1.355059212074E-04 7.547438144684E-06 5.440613681793E+03
     2.070000000000E+05-5.587935447693E-09 1.243397474050E+00 0.000000000000E+00
     9.523084718589E-01 1.718750000000E+02 1.596492608668E+00-5.668807557160E-09
     5.178787145843E-10 2.580000000000E+02 2.035000000000E+03 0.000000000000E+00
     3.120000000000E+00 0.000000000000E+00-1.396983861923E-09 0.000000000000E+00
     2.077000000000E+05 0.000000000000E+00 0.000000000000E+00 0.000000000000E+00
E07 2019 01 08 09 30 00-1.086564152502E-04-7.077005648171E-12 0.000000000000E+00
     8.900000000000E+01 2.100000000000E+01 3.455143920613E-09 1.278752156132E+00
     1.041218638420E-06 1.370256068185E-04 8.016824722290E-06 5.440614316940E+03
     2.070000000000E+05 6.705522537231E-08 1.243414272738E+00 2.793967723846E-08
     9.523390380692E-01 1.625937500000E+02 2.249416485797E-03-5.588447066966E-09
     5.557374344091E-10 2.580000000000E+02 2.035000000000E+03 0.000000000000E+00
     3.120000000000E+00 0.000000000000E+00 2.328306436539E-10 0.000000000000E+00
     2.077000000000E+05 0.000000000000E+00 0.000000000000E+00 0.000000000000E+00
E08 2019 01 08 09 30 00 6.427566404454E-03-7.474909580196E-12 0.000000000000E+00
     8.900000000000E+01 2.278125000000E+01 3.297994517567E-09 1.600161658413E+00
     1.028180122375E-06 2.172741806135E-04 8.223578333855E-06 5.440612846375E+03
     2.070000000000E+05 1.117587089539E-08 1.234783549074E+00 2.980232238770E-08
     9.582833174895E-01 1.620625000000E+02 4.674703417761E-01-5.487728585923E-09
     5.639520622956E-10 2.580000000000E+02 2.035000000000E+03 0.000000000000E+00
     3.120000000000E+00 0.000000000000E+00-8.614733815193E-09 0.000000000000E+00
     2.077000000000E+05 0.000000000000E+00 0.000000000000E+00 0.000000000000E+00
E09 2019 01 08 09 30 00 6.564519077074E-03-1.131184035330E-11 0.000000000000E+00
     8.900000000000E+01 3.918750000000E+01 3.393712790331E-09-1.952788425179E+00
     1.860782504082E-06 2.437662333250E-04 7.791444659233E-06 5.440613967896E+03
     2.070000000000E+05-1.490116119385E-08 1.234780605683E+00 2.235174179077E-08
     9.583129532839E-01 1.726875000000E+02 9.217401066324E-02-5.596304537118E-09
     5.268076579392E-10 2.580000000000E+02 2.035000000000E+03 0.000000000000E+00
     3.120000000000E+00 0.000000000000E+00-3.259629011154E-09 0.000000000000E+00
     2.077000000000E+05 0.000000000000E+00 0.000000000000E+00 0.000000000000E+00
E11 2019 01 08 09 30 00 5.719312815927E-03 1.023181539495E-12 0.000000000000E+00
     8.900000000000E+01-1.049375000000E+02 3.117987019532E-09 6.023412053118E-01
    -4.861503839493E-06 2.483741845936E-04 1.024454832077E-07 5.440603305817E+03
     2.070000000000E+05 7.450580596924E-09-8.617873084662E-01-3.911554813385E-08
     9.819136781546E-01 3.515312500000E+02-3.675933257261E-01-5.841671900511E-09
    -1.732215010851E-10 2.580000000000E+02 2.035000000000E+03 0.000000000000E+00
     3.120000000000E+00 0.000000000000E+00-1.839362084866E-08 0.000000000000E+00
     2.077000000000E+05 0.000000000000E+00 0.000000000000E+00 0.000000000000E+00
E12 2019 01 08 09 30 00 5.895875045098E-03 8.439826615358E-11 0.000000000000E+00
     8.900000000000E+01-9.625000000000E+01 3.045483999490E-09 1.930605788726E+00
    -4.591420292854E-06 3.778605023399E-04 1.695007085800E-07 5.440607395172E+03
     2.070000000000E+05 6.332993507385E-08-8.618030962782E-01-2.048909664154E-08
     9.819275056563E-01 3.470312500000E+02-8.922079248185E-01-5.860244102689E-09
    -1.500062483624E-10 2.580000000000E+02 2.035000000000E+03 0.000000000000E+00
     3.120000000000E+00 0.000000000000E+00-1.559965312481E-08 0.000000000000E+00
     2.077000000000E+05 0.000000000000E+00 0.000000000000E+00 0.000000000000E+00
